SL-4 R/B                
1 39679U 14021B   26044.46904798  .00012944  00000+0  29395-3 0  9995
2 39679  51.6070  95.3618 0098894  14.7059 345.6765 15.38375652652544
ALOS-2                  
1 39766U 14029A   26044.57393089  .00001132  00000+0  15855-3 0  9990
2 39766  97.9207 143.5189 0001602 105.8100 254.3289 14.79452697633304
YAOGAN-29               
1 41038U 15069A   26044.50426556  .00001225  00000+0  15758-3 0  9994
2 41038  98.0178  72.8669 0002873  77.4769 282.6766 14.82969938552298
ASTRO-H (HITOMI)        
1 41337U 16012A   26044.43904130  .00003521  00000+0  20661-3 0  9996
2 41337  30.9984 153.0185 0009818  88.9205 271.2558 15.09827241548561
HXMT (HUIYAN)           
1 42758U 17034A   26044.55227007  .00007044  00000+0  35608-3 0  9994
2 42758  43.0134 150.8331 0030654  81.6252 278.8069 15.17146116478873
CZ-2C R/B               
1 43521U 18054D   26044.50684417  .00445655  84605-4  80688-3 0  9993
2 43521  35.1283 108.9570 0011945  72.4557 287.7488 16.00317010425014
SAOCOM 1A               
1 43641U 18076A   26044.52418075 -.00000397  00000+0 -43374-4 0  9993
2 43641  97.8876 233.0387 0001325  80.4164 279.7198 14.82138397397788
H-2A R/B                
1 43682U 18084L   26044.50923451  .00020436  00000+0  50343-3 0  9991
2 43682  98.8757 256.7487 0026334 106.2333 254.1808 15.40276090402057
SAOCOM 1B               
1 46265U 20059A   26044.48793852  .00000944  00000+0  12509-3 0  9997
2 46265  97.8874 232.1010 0001476  87.3627 272.7754 14.82146275295165
CSS (TIANHE)            
1 48274U 21035A   26044.32604618  .00017820  00000+0  22138-3 0  9998
2 48274  41.4683 356.2838 0004118  79.4729 280.6573 15.59565939273808
COSMOS 2550             
1 48865U 21056A   26043.67324435 -.00000047  00000+0  44074-5 0  9999
2 48865  67.1431 116.6034 0008311 269.5097  90.5105 15.33832120259629
CZ-2C R/B               
1 52794U 22058K   26044.32426817  .00030941  00000+0  48267-3 0  9999
2 52794  50.1884  83.4566 0042182  97.1758 263.4010 15.52495777206344
