CCSDS_OMM_VERS = 2.0
CREATION_DATE  = 
ORIGINATOR     = 

OBJECT_NAME    = SL-4 R/B
OBJECT_ID      = 2014-021B
CENTER_NAME    = EARTH
REF_FRAME      = TEME
TIME_SYSTEM    = UTC
MEAN_ELEMENT_THEORY = SGP/SGP4

EPOCH          = 2026-02-13T11:15:25.745472
MEAN_MOTION    = 15.38375652
ECCENTRICITY   = .0098894
INCLINATION    = 51.6070
RA_OF_ASC_NODE = 95.3618
ARG_OF_PERICENTER = 14.7059
MEAN_ANOMALY   = 345.6765

EPHEMERIS_TYPE = 0
CLASSIFICATION_TYPE = U
NORAD_CAT_ID   = 39679
ELEMENT_SET_NO = 999
REV_AT_EPOCH   = 65254
BSTAR          = .29395E-3
MEAN_MOTION_DOT = .12944E-3
MEAN_MOTION_DDOT = 0

CCSDS_OMM_VERS = 2.0
CREATION_DATE  = 
ORIGINATOR     = 

OBJECT_NAME    = ALOS-2
OBJECT_ID      = 2014-029A
CENTER_NAME    = EARTH
REF_FRAME      = TEME
TIME_SYSTEM    = UTC
MEAN_ELEMENT_THEORY = SGP/SGP4

EPOCH          = 2026-02-13T13:46:27.628896
MEAN_MOTION    = 14.79452697
ECCENTRICITY   = .0001602
INCLINATION    = 97.9207
RA_OF_ASC_NODE = 143.5189
ARG_OF_PERICENTER = 105.8100
MEAN_ANOMALY   = 254.3289

EPHEMERIS_TYPE = 0
CLASSIFICATION_TYPE = U
NORAD_CAT_ID   = 39766
ELEMENT_SET_NO = 999
REV_AT_EPOCH   = 63330
BSTAR          = .15855E-3
MEAN_MOTION_DOT = .1132E-4
MEAN_MOTION_DDOT = 0

CCSDS_OMM_VERS = 2.0
CREATION_DATE  = 
ORIGINATOR     = 

OBJECT_NAME    = YAOGAN-29
OBJECT_ID      = 2015-069A
CENTER_NAME    = EARTH
REF_FRAME      = TEME
TIME_SYSTEM    = UTC
MEAN_ELEMENT_THEORY = SGP/SGP4

EPOCH          = 2026-02-13T12:06:08.544384
MEAN_MOTION    = 14.82969938
ECCENTRICITY   = .0002873
INCLINATION    = 98.0178
RA_OF_ASC_NODE = 72.8669
ARG_OF_PERICENTER = 77.4769
MEAN_ANOMALY   = 282.6766

EPHEMERIS_TYPE = 0
CLASSIFICATION_TYPE = U
NORAD_CAT_ID   = 41038
ELEMENT_SET_NO = 999
REV_AT_EPOCH   = 55229
BSTAR          = .15758E-3
MEAN_MOTION_DOT = .1225E-4
MEAN_MOTION_DDOT = 0

CCSDS_OMM_VERS = 2.0
CREATION_DATE  = 
ORIGINATOR     = 

OBJECT_NAME    = ASTRO-H (HITOMI)
OBJECT_ID      = 2016-012A
CENTER_NAME    = EARTH
REF_FRAME      = TEME
TIME_SYSTEM    = UTC
MEAN_ELEMENT_THEORY = SGP/SGP4

EPOCH          = 2026-02-13T10:32:13.168320
MEAN_MOTION    = 15.09827241
ECCENTRICITY   = .0009818
INCLINATION    = 30.9984
RA_OF_ASC_NODE = 153.0185
ARG_OF_PERICENTER = 88.9205
MEAN_ANOMALY   = 271.2558

EPHEMERIS_TYPE = 0
CLASSIFICATION_TYPE = U
NORAD_CAT_ID   = 41337
ELEMENT_SET_NO = 999
REV_AT_EPOCH   = 54856
BSTAR          = .20661E-3
MEAN_MOTION_DOT = .3521E-4
MEAN_MOTION_DDOT = 0

CCSDS_OMM_VERS = 2.0
CREATION_DATE  = 
ORIGINATOR     = 

OBJECT_NAME    = HXMT (HUIYAN)
OBJECT_ID      = 2017-034A
CENTER_NAME    = EARTH
REF_FRAME      = TEME
TIME_SYSTEM    = UTC
MEAN_ELEMENT_THEORY = SGP/SGP4

EPOCH          = 2026-02-13T13:15:16.134048
MEAN_MOTION    = 15.17146116
ECCENTRICITY   = .0030654
INCLINATION    = 43.0134
RA_OF_ASC_NODE = 150.8331
ARG_OF_PERICENTER = 81.6252
MEAN_ANOMALY   = 278.8069

EPHEMERIS_TYPE = 0
CLASSIFICATION_TYPE = U
NORAD_CAT_ID   = 42758
ELEMENT_SET_NO = 999
REV_AT_EPOCH   = 47887
BSTAR          = .35608E-3
MEAN_MOTION_DOT = .7044E-4
MEAN_MOTION_DDOT = 0

CCSDS_OMM_VERS = 2.0
CREATION_DATE  = 
ORIGINATOR     = 

OBJECT_NAME    = CZ-2C R/B
OBJECT_ID      = 2018-054D
CENTER_NAME    = EARTH
REF_FRAME      = TEME
TIME_SYSTEM    = UTC
MEAN_ELEMENT_THEORY = SGP/SGP4

EPOCH          = 2026-02-13T12:09:51.336288
MEAN_MOTION    = 16.00317010
ECCENTRICITY   = .0011945
INCLINATION    = 35.1283
RA_OF_ASC_NODE = 108.9570
ARG_OF_PERICENTER = 72.4557
MEAN_ANOMALY   = 287.7488

EPHEMERIS_TYPE = 0
CLASSIFICATION_TYPE = U
NORAD_CAT_ID   = 43521
ELEMENT_SET_NO = 999
REV_AT_EPOCH   = 42501
BSTAR          = .80688E-3
MEAN_MOTION_DOT = .445655E-2
MEAN_MOTION_DDOT = .84605E-4

CCSDS_OMM_VERS = 2.0
CREATION_DATE  = 
ORIGINATOR     = 

OBJECT_NAME    = SAOCOM 1A
OBJECT_ID      = 2018-076A
CENTER_NAME    = EARTH
REF_FRAME      = TEME
TIME_SYSTEM    = UTC
MEAN_ELEMENT_THEORY = SGP/SGP4

EPOCH          = 2026-02-13T12:34:49.216800
MEAN_MOTION    = 14.82138397
ECCENTRICITY   = .0001325
INCLINATION    = 97.8876
RA_OF_ASC_NODE = 233.0387
ARG_OF_PERICENTER = 80.4164
MEAN_ANOMALY   = 279.7198

EPHEMERIS_TYPE = 0
CLASSIFICATION_TYPE = U
NORAD_CAT_ID   = 43641
ELEMENT_SET_NO = 999
REV_AT_EPOCH   = 39778
BSTAR          = -.43374E-4
MEAN_MOTION_DOT = -.397E-5
MEAN_MOTION_DDOT = 0

CCSDS_OMM_VERS = 2.0
CREATION_DATE  = 
ORIGINATOR     = 

OBJECT_NAME    = H-2A R/B
OBJECT_ID      = 2018-084L
CENTER_NAME    = EARTH
REF_FRAME      = TEME
TIME_SYSTEM    = UTC
MEAN_ELEMENT_THEORY = SGP/SGP4

EPOCH          = 2026-02-13T12:13:17.861664
MEAN_MOTION    = 15.40276090
ECCENTRICITY   = .0026334
INCLINATION    = 98.8757
RA_OF_ASC_NODE = 256.7487
ARG_OF_PERICENTER = 106.2333
MEAN_ANOMALY   = 254.1808

EPHEMERIS_TYPE = 0
CLASSIFICATION_TYPE = U
NORAD_CAT_ID   = 43682
ELEMENT_SET_NO = 999
REV_AT_EPOCH   = 40205
BSTAR          = .50343E-3
MEAN_MOTION_DOT = .20436E-3
MEAN_MOTION_DDOT = 0

CCSDS_OMM_VERS = 2.0
CREATION_DATE  = 
ORIGINATOR     = 

OBJECT_NAME    = SAOCOM 1B
OBJECT_ID      = 2020-059A
CENTER_NAME    = EARTH
REF_FRAME      = TEME
TIME_SYSTEM    = UTC
MEAN_ELEMENT_THEORY = SGP/SGP4

EPOCH          = 2026-02-13T11:42:37.888128
MEAN_MOTION    = 14.82146275
ECCENTRICITY   = .0001476
INCLINATION    = 97.8874
RA_OF_ASC_NODE = 232.1010
ARG_OF_PERICENTER = 87.3627
MEAN_ANOMALY   = 272.7754

EPHEMERIS_TYPE = 0
CLASSIFICATION_TYPE = U
NORAD_CAT_ID   = 46265
ELEMENT_SET_NO = 999
REV_AT_EPOCH   = 29516
BSTAR          = .12509E-3
MEAN_MOTION_DOT = .944E-5
MEAN_MOTION_DDOT = 0

CCSDS_OMM_VERS = 2.0
CREATION_DATE  = 
ORIGINATOR     = 

OBJECT_NAME    = CSS (TIANHE)
OBJECT_ID      = 2021-035A
CENTER_NAME    = EARTH
REF_FRAME      = TEME
TIME_SYSTEM    = UTC
MEAN_ELEMENT_THEORY = SGP/SGP4

EPOCH          = 2026-02-13T07:49:30.389952
MEAN_MOTION    = 15.59565939
ECCENTRICITY   = .0004118
INCLINATION    = 41.4683
RA_OF_ASC_NODE = 356.2838
ARG_OF_PERICENTER = 79.4729
MEAN_ANOMALY   = 280.6573

EPHEMERIS_TYPE = 0
CLASSIFICATION_TYPE = U
NORAD_CAT_ID   = 48274
ELEMENT_SET_NO = 999
REV_AT_EPOCH   = 27380
BSTAR          = .22138E-3
MEAN_MOTION_DOT = .1782E-3
MEAN_MOTION_DDOT = 0

CCSDS_OMM_VERS = 2.0
CREATION_DATE  = 
ORIGINATOR     = 

OBJECT_NAME    = COSMOS 2550
OBJECT_ID      = 2021-056A
CENTER_NAME    = EARTH
REF_FRAME      = TEME
TIME_SYSTEM    = UTC
MEAN_ELEMENT_THEORY = SGP/SGP4

EPOCH          = 2026-02-12T16:09:28.311840
MEAN_MOTION    = 15.33832120
ECCENTRICITY   = .00083114
INCLINATION    = 67.1431
RA_OF_ASC_NODE = 116.6034
ARG_OF_PERICENTER = 269.5097
MEAN_ANOMALY   = 90.5105

EPHEMERIS_TYPE = 0
CLASSIFICATION_TYPE = U
NORAD_CAT_ID   = 48865
ELEMENT_SET_NO = 999
REV_AT_EPOCH   = 25962
BSTAR          = .4407408E-5
MEAN_MOTION_DOT = -.47E-6
MEAN_MOTION_DDOT = 0

CCSDS_OMM_VERS = 2.0
CREATION_DATE  = 
ORIGINATOR     = 

OBJECT_NAME    = CZ-2C R/B
OBJECT_ID      = 2022-058K
CENTER_NAME    = EARTH
REF_FRAME      = TEME
TIME_SYSTEM    = UTC
MEAN_ELEMENT_THEORY = SGP/SGP4

EPOCH          = 2026-02-13T07:46:56.769888
MEAN_MOTION    = 15.52495777
ECCENTRICITY   = .0042182
INCLINATION    = 50.1884
RA_OF_ASC_NODE = 83.4566
ARG_OF_PERICENTER = 97.1758
MEAN_ANOMALY   = 263.4010

EPHEMERIS_TYPE = 0
CLASSIFICATION_TYPE = U
NORAD_CAT_ID   = 52794
ELEMENT_SET_NO = 999
REV_AT_EPOCH   = 20634
BSTAR          = .48267E-3
MEAN_MOTION_DOT = .30941E-3
MEAN_MOTION_DDOT = 0

